QIANFAN-97              
1 66039U 25233G   26015.65744408 -.02064832  00000+0 -35289+1 0  9994
2 66039  88.9921  58.6422 0009126 286.7044  73.3104 13.48897470 12595
QIANFAN-98              
1 66040U 25233H   26015.80017257  .00000099  00000+0  80361-4 0  9994
2 66040  88.9919  58.4248 0012968 298.1504  61.8354 13.82096056 12727
QIANFAN-99              
1 66041U 25233J   26015.89246511  .00000057  00000+0  70630-4 0  9993
2 66041  88.9936  58.6218 0011848 303.5667  56.4352 13.50968136 12622
QIANFAN-100             
1 66042U 25233K   26015.88423736  .00000035  00000+0  36446-4 0  9992
2 66042  88.9942  58.5335 0011815 303.2241  56.7777 13.50958460 12676
QIANFAN-101             
1 66043U 25233L   26015.89321775  .00000119  00000+0  43032-4 0  9996
2 66043  88.9926  58.0900 0012524 285.2906  74.6903 14.26694138 12917
QIANFAN-102             
1 66044U 25233M   26015.78145634  .00000084  00000+0  86308-4 0  9997
2 66044  88.9924  58.5697 0013492 302.6968  57.2890 13.66381093 12649
QIANFAN-103             
1 66045U 25233N   26015.90891449  .00000065  00000+0  82690-4 0  9993
2 66045  88.9927  58.6240 0012618 302.1477  57.8449 13.50989796 12628
QIANFAN-104             
1 66046U 25233P   26015.93700190  .00000094  00000+0  90864-4 0  9993
2 66046  88.9929  58.5398 0012461 305.3020  54.6976 13.71550440 12677
